[{"OBJECT_NAME":"ONEWEB-0625","OBJECT_ID":"2023-004AC","EPOCH":"2026-03-09T20:02:59.294400","MEAN_MOTION":13.17649415,"ECCENTRICITY":0.00017641,"INCLINATION":87.9151,"RA_OF_ASC_NODE":25.6036,"ARG_OF_PERICENTER":86.6046,"MEAN_ANOMALY":273.5288,"EPHEMERIS_TYPE":0,"CLASSIFICATION_TYPE":"U","NORAD_CAT_ID":55166,"ELEMENT_SET_NO":999,"REV_AT_EPOCH":15449,"BSTAR":-1.2961049e-5,"MEAN_MOTION_DOT":8.0e-8,"MEAN_MOTION_DDOT":0},{"OBJECT_NAME":"CZ-4 DEB","OBJECT_ID":"1990-081AA","EPOCH":"2026-03-09T15:02:51.533376","MEAN_MOTION":13.62024845,"ECCENTRICITY":0.0231608,"INCLINATION":98.9337,"RA_OF_ASC_NODE":269.7228,"ARG_OF_PERICENTER":100.3745,"MEAN_ANOMALY":306.18,"EPHEMERIS_TYPE":0,"CLASSIFICATION_TYPE":"U","NORAD_CAT_ID":20862,"ELEMENT_SET_NO":999,"REV_AT_EPOCH":75963,"BSTAR":0.00036822,"MEAN_MOTION_DOT":3.02e-6,"MEAN_MOTION_DDOT":0}]
